{"type": "FeatureCollection", "features": [ {"type": "Feature", "properties": {"norad_id": 44506, "name": "GPS BIII-2  (PRN 18)", "group": "gnss", "lat": -19.65881545937179, "lon": 172.45934243174815, "alt_km": 20032.422327288386, "timestamp": "2025-12-17T10:52:54.596588+00:00", "meta": {"OBJECT_NAME": "GPS BIII-2  (PRN 18)", "OBJECT_ID": "2019-056A", "EPOCH": "2025-12-16T09:52:28.741728", "MEAN_MOTION": 2.00566563, "ECCENTRICITY": 0.00577066, "INCLINATION": 55.7201, "RA_OF_ASC_NODE": 338.4066, "ARG_OF_PERICENTER": 198.4994, "MEAN_ANOMALY": 333.0667, "EPHEMERIS_TYPE": 0, "CLASSIFICATION_TYPE": "U", "NORAD_CAT_ID": 44506, "ELEMENT_SET_NO": 999, "REV_AT_EPOCH": 4640, "BSTAR": 0, "MEAN_MOTION_DOT": -8.9e-07, "MEAN_MOTION_DDOT": 0}, "tle": {"line1": "1 44506U 19056A   25350.41144377 -.00000089  00000+0  00000+0 0  9992", "line2": "2 44506  55.7201 338.4066 0057706 198.4994 333.0667  2.00566563 46405"}}, "geometry": {"type": "Point", "coordinates": [172.45934243174815, -19.65881545937179]}}, {"type": "Feature", "properties": {"norad_id": 44542, "name": "BEIDOU-3 M24 (C46)", "group": "gnss", "lat": 15.969322313875146, "lon": -2.971389454210894, "alt_km": 21545.39657602521, "timestamp": "2025-12-17T10:52:54.596602+00:00", "meta": {"OBJECT_NAME": "BEIDOU-3 M24 (C46)", "OBJECT_ID": "2019-061A", "EPOCH": "2025-12-16T03:22:44.327712", "MEAN_MOTION": 1.86229353, "ECCENTRICITY": 0.00096014, "INCLINATION": 54.4001, "RA_OF_ASC_NODE": 188.9011, "ARG_OF_PERICENTER": 24.8001, "MEAN_ANOMALY": 335.316, "EPHEMERIS_TYPE": 0, "CLASSIFICATION_TYPE": "U", "NORAD_CAT_ID": 44542, "ELEMENT_SET_NO": 999, "REV_AT_EPOCH": 4238, "BSTAR": 0, "MEAN_MOTION_DOT": 1.15e-06, "MEAN_MOTION_DDOT": 0}, "tle": {"line1": "1 44542U 19061A   25350.14079083  .00000115  00000+0  00000+0 0  9998", "line2": "2 44542  54.4001 188.9011 0009601  24.8001 335.3160  1.86229353 42381"}}, "geometry": {"type": "Point", "coordinates": [-2.971389454210894, 15.969322313875146]}}, {"type": "Feature", "properties": {"norad_id": 44543, "name": "BEIDOU-3 M23 (C45)", "group": "gnss", "lat": 50.97231772007761, "lon": -109.01419920379348, "alt_km": 21511.038879511474, "timestamp": "2025-12-17T10:52:54.596613+00:00", "meta": {"OBJECT_NAME": "BEIDOU-3 M23 (C45)", "OBJECT_ID": "2019-061B", "EPOCH": "2025-12-16T19:20:04.225344", "MEAN_MOTION": 1.86227685, "ECCENTRICITY": 0.00060954, "INCLINATION": 54.399, "RA_OF_ASC_NODE": 188.847, "ARG_OF_PERICENTER": 24.4715, "MEAN_ANOMALY": 334.1063, "EPHEMERIS_TYPE": 0, "CLASSIFICATION_TYPE": "U", "NORAD_CAT_ID": 44543, "ELEMENT_SET_NO": 999, "REV_AT_EPOCH": 4239, "BSTAR": 0, "MEAN_MOTION_DOT": 1.15e-06, "MEAN_MOTION_DDOT": 0}, "tle": {"line1": "1 44543U 19061B   25350.80560446  .00000115  00000+0  00000+0 0  9990", "line2": "2 44543  54.3990 188.8470 0006095  24.4715 334.1063  1.86227685 42394"}}, "geometry": {"type": "Point", "coordinates": [-109.01419920379348, 50.97231772007761]}}, {"type": "Feature", "properties": {"norad_id": 44624, "name": "EUTELSAT 5 WEST B (EGNOS/PRN 121)", "group": "gnss", "lat": -0.09598198108931727, "lon": -115.45319710249603, "alt_km": 35772.955426059685, "timestamp": "2025-12-17T10:52:54.596625+00:00", "meta": {"OBJECT_NAME": "EUTELSAT 5 WEST B (EGNOS/PRN 121)", "OBJECT_ID": "2019-067A", "EPOCH": "2025-12-16T16:45:26.529408", "MEAN_MOTION": 1.00273404, "ECCENTRICITY": 0.00032128, "INCLINATION": 0.0718, "RA_OF_ASC_NODE": 328.0837, "ARG_OF_PERICENTER": 297.9628, "MEAN_ANOMALY": 65.9102, "EPHEMERIS_TYPE": 0, "CLASSIFICATION_TYPE": "U", "NORAD_CAT_ID": 44624, "ELEMENT_SET_NO": 999, "REV_AT_EPOCH": 2260, "BSTAR": 0, "MEAN_MOTION_DOT": -1.8e-07, "MEAN_MOTION_DDOT": 0}, "tle": {"line1": "1 44624U 19067A   25350.69822372 -.00000018  00000+0  00000+0 0  9995", "line2": "2 44624   0.0718 328.0837 0003212 297.9628  65.9102  1.00273404 22604"}}, "geometry": {"type": "Point", "coordinates": [-115.45319710249603, -0.09598198108931727]}}, {"type": "Feature", "properties": {"norad_id": 44709, "name": "BEIDOU-3 IGSO-3 (C40)", "group": "gnss", "lat": 53.662429293318986, "lon": -6.02729664839198, "alt_km": 35860.669292244864, "timestamp": "2025-12-17T10:52:54.596640+00:00", "meta": {"OBJECT_NAME": "BEIDOU-3 IGSO-3 (C40)", "OBJECT_ID": "2019-073A", "EPOCH": "2025-11-20T07:11:22.740000", "MEAN_MOTION": 1.00250097, "ECCENTRICITY": 0.0044538, "INCLINATION": 55.163, "RA_OF_ASC_NODE": 283.159, "ARG_OF_PERICENTER": 191.5856, "MEAN_ANOMALY": 168.2409, "EPHEMERIS_TYPE": 0, "CLASSIFICATION_TYPE": "U", "NORAD_CAT_ID": 44709, "ELEMENT_SET_NO": 999, "REV_AT_EPOCH": 2236, "BSTAR": 0, "MEAN_MOTION_DOT": -2.06e-06, "MEAN_MOTION_DDOT": 0}, "tle": {"line1": "1 44709U 19073A   25324.29956875 -.00000206  00000+0  00000+0 0  9998", "line2": "2 44709  55.1630 283.1590 0044538 191.5856 168.2409  1.00250097 22360"}}, "geometry": {"type": "Point", "coordinates": [-6.02729664839198, 53.662429293318986]}}, {"type": "Feature", "properties": {"norad_id": 44793, "name": "BEIDOU-3 M22 (C44)", "group": "gnss", "lat": -54.021402195347136, "lon": -148.38275459673787, "alt_km": 21540.894345847744, "timestamp": "2025-12-17T10:52:54.596655+00:00", "meta": {"OBJECT_NAME": "BEIDOU-3 M22 (C44)", "OBJECT_ID": "2019-078A", "EPOCH": "2025-12-15T23:32:20.992992", "MEAN_MOTION": 1.86231869, "ECCENTRICITY": 0.00058075, "INCLINATION": 54.1051, "RA_OF_ASC_NODE": 306.2718, "ARG_OF_PERICENTER": 23.5551, "MEAN_ANOMALY": 336.4582, "EPHEMERIS_TYPE": 0, "CLASSIFICATION_TYPE": "U", "NORAD_CAT_ID": 44793, "ELEMENT_SET_NO": 999, "REV_AT_EPOCH": 4123, "BSTAR": 0, "MEAN_MOTION_DOT": -9.7e-07, "MEAN_MOTION_DDOT": 0}, "tle": {"line1": "1 44793U 19078A   25349.98079853 -.00000097  00000+0  00000+0 0  9999", "line2": "2 44793  54.1051 306.2718 0005807  23.5551 336.4582  1.86231869 41238"}}, "geometry": {"type": "Point", "coordinates": [-148.38275459673787, -54.021402195347136]}}, {"type": "Feature", "properties": {"norad_id": 44794, "name": "BEIDOU-3 M21 (C43)", "group": "gnss", "lat": 4.035685512714012, "lon": 123.23214439691658, "alt_km": 21538.826191756405, "timestamp": "2025-12-17T10:52:54.596666+00:00", "meta": {"OBJECT_NAME": "BEIDOU-3 M21 (C43)", "OBJECT_ID": "2019-078B", "EPOCH": "2025-12-15T13:57:29.064096", "MEAN_MOTION": 1.86227547, "ECCENTRICITY": 0.00039999, "INCLINATION": 54.0788, "RA_OF_ASC_NODE": 306.2509, "ARG_OF_PERICENTER": 11.1298, "MEAN_ANOMALY": 348.8661, "EPHEMERIS_TYPE": 0, "CLASSIFICATION_TYPE": "U", "NORAD_CAT_ID": 44794, "ELEMENT_SET_NO": 999, "REV_AT_EPOCH": 4123, "BSTAR": 0, "MEAN_MOTION_DOT": -9.9e-07, "MEAN_MOTION_DDOT": 0}, "tle": {"line1": "1 44794U 19078B   25349.58158639 -.00000099  00000+0  00000+0 0  9998", "line2": "2 44794  54.0788 306.2509 0003999  11.1298 348.8661  1.86227547 41237"}}, "geometry": {"type": "Point", "coordinates": [123.23214439691658, 4.035685512714012]}}, {"type": "Feature", "properties": {"norad_id": 44850, "name": "COSMOS 2544 (759)", "group": "gnss", "lat": 19.62525925473519, "lon": 89.16638608986891, "alt_km": 19151.450377250105, "timestamp": "2025-12-17T10:52:54.596678+00:00", "meta": {"OBJECT_NAME": "COSMOS 2544 (759)", "OBJECT_ID": "2019-088A", "EPOCH": "2025-12-16T00:24:58.723776", "MEAN_MOTION": 2.13101973, "ECCENTRICITY": 0.00138315, "INCLINATION": 65.4622, "RA_OF_ASC_NODE": 79.8485, "ARG_OF_PERICENTER": 249.722, "MEAN_ANOMALY": 110.1429, "EPHEMERIS_TYPE": 0, "CLASSIFICATION_TYPE": "U", "NORAD_CAT_ID": 44850, "ELEMENT_SET_NO": 999, "REV_AT_EPOCH": 4681, "BSTAR": 0, "MEAN_MOTION_DOT": -5.5e-07, "MEAN_MOTION_DDOT": 0}, "tle": {"line1": "1 44850U 19088A   25350.01734634 -.00000055  00000+0  00000+0 0  9999", "line2": "2 44850  65.4622  79.8485 0013831 249.7220 110.1429  2.13101973 46815"}}, "geometry": {"type": "Point", "coordinates": [89.16638608986891, 19.62525925473519]}}, {"type": "Feature", "properties": {"norad_id": 44864, "name": "BEIDOU-3 M19 (C41)", "group": "gnss", "lat": 9.086138076421825, "lon": 74.91060398748844, "alt_km": 21523.171349183394, "timestamp": "2025-12-17T10:52:54.596689+00:00", "meta": {"OBJECT_NAME": "BEIDOU-3 M19 (C41)", "OBJECT_ID": "2019-090A", "EPOCH": "2025-12-14T04:04:53.318784", "MEAN_MOTION": 1.86231555, "ECCENTRICITY": 0.00179181, "INCLINATION": 56.3949, "RA_OF_ASC_NODE": 68.9134, "ARG_OF_PERICENTER": 285.3736, "MEAN_ANOMALY": 44.0547, "EPHEMERIS_TYPE": 0, "CLASSIFICATION_TYPE": "U", "NORAD_CAT_ID": 44864, "ELEMENT_SET_NO": 999, "REV_AT_EPOCH": 4078, "BSTAR": 0, "MEAN_MOTION_DOT": -8.2e-07, "MEAN_MOTION_DDOT": 0}, "tle": {"line1": "1 44864U 19090A   25348.17006156 -.00000082  00000+0  00000+0 0  9992", "line2": "2 44864  56.3949  68.9134 0017918 285.3736  44.0547  1.86231555 40784"}}, "geometry": {"type": "Point", "coordinates": [74.91060398748844, 9.086138076421825]}}, {"type": "Feature", "properties": {"norad_id": 44865, "name": "BEIDOU-3 M20 (C42)", "group": "gnss", "lat": 55.025710872229915, "lon": 177.23808168248638, "alt_km": 21561.84255974386, "timestamp": "2025-12-17T10:52:54.596706+00:00", "meta": {"OBJECT_NAME": "BEIDOU-3 M20 (C42)", "OBJECT_ID": "2019-090B", "EPOCH": "2025-12-14T14:16:43.218624", "MEAN_MOTION": 1.86231589, "ECCENTRICITY": 0.00151163, "INCLINATION": 56.3967, "RA_OF_ASC_NODE": 68.9336, "ARG_OF_PERICENTER": 297.6834, "MEAN_ANOMALY": 46.2212, "EPHEMERIS_TYPE": 0, "CLASSIFICATION_TYPE": "U", "NORAD_CAT_ID": 44865, "ELEMENT_SET_NO": 999, "REV_AT_EPOCH": 4077, "BSTAR": 0, "MEAN_MOTION_DOT": -8.3e-07, "MEAN_MOTION_DDOT": 0}, "tle": {"line1": "1 44865U 19090B   25348.59494466 -.00000083  00000+0  00000+0 0  9995", "line2": "2 44865  56.3967  68.9336 0015116 297.6834  46.2212  1.86231589 40771"}}, "geometry": {"type": "Point", "coordinates": [177.23808168248638, 55.025710872229915]}}]}